LIME                    
1 62648U 25009AR  26068.73906781  .00013254  00000+0  47723-3 0  9995
2 62648  97.3985 151.4831 0001635  35.9029 324.2320 15.28703313 63766
STARLINK-36544          
1 67517U 26012AA  26068.04348152  .00036927  00000+0  13437-2 0  9992
2 67517  43.0014 317.9857 0001717 262.4018  97.6639 15.27604450  7662
